CZ-2F DEB               
1 67692U 26024D   26049.62692516  .00213881  00000+0  42487-2 0  9991
2 67692  50.3132 111.8301 0259029 205.0507 153.7696 15.17211997  1727
STARLINK-36748          
1 67693U 26025A   26049.83335647 -.01807197  89412-3 -57765-2 0  9990
2 67693  97.2785 160.3733 0001454  71.0788 322.0064 15.91170573  2816
STARLINK-36753          
1 67694U 26025B   26049.83335647 -.01770958  86824-3 -54241-2 0  9995
2 67694  97.2773 160.3816 0001489  65.9646 346.8830 15.92001460  2970
STARLINK-36750          
1 67695U 26025C   26049.83335647 -.01799807  89006-3 -56633-2 0  9992
2 67695  97.2782 160.3760 0001356  79.9226 320.3919 15.91478096  2811
STARLINK-36401          
1 67696U 26025D   26049.83335647 -.01810431  90220-3 -56236-2 0  9999
2 67696  97.2778 160.3786 0001333  81.5652 324.6422 15.91732239  2810
STARLINK-36704          
1 67697U 26025E   26049.83335647 -.01775962  87543-3 -53577-2 0  9998
2 67697  97.2769 160.3842 0001438  78.0306 341.4815 15.92296896  2815
STARLINK-36697          
1 67698U 26025F   26049.83335647 -.01769396  87122-3 -52818-2 0  9993
2 67698  97.2768 160.3865 0001422  81.1985 343.1687 15.92500818  2763
STARLINK-36716          
1 67699U 26025G   26049.83335647 -.01770978  87512-3 -52122-2 0  9993
2 67699  97.2763 160.3889 0001452  81.1449 349.4801 15.92774836  2976
STARLINK-36712          
1 67700U 26025H   26049.83335647 -.01767433  87420-3 -51316-2 0  9990
2 67700  97.2761 160.3918 0001493  80.7350 355.9636 15.93036097  2767
STARLINK-36713          
1 67701U 26025J   26049.83335647 -.01760789  87043-3 -50429-2 0  9993
2 67701  97.2757 160.3931 0001513  71.8434  10.8891 15.93298028  2972
STARLINK-36695          
1 67702U 26025K   26049.83335647 -.01746337  85901-3 -49468-2 0  9999
2 67702  97.2753 160.3960 0001577  71.9897  15.7722 15.93506904  2810
STARLINK-36630          
1 67703U 26025L   26049.83335647 -.01738449  85361-3 -48714-2 0  9998
2 67703  97.2752 160.3983 0001572  72.0604  20.5689 15.93713346  2814
