CCSDS_OMM_VERS = 2.0
CREATION_DATE  = 
ORIGINATOR     = 

OBJECT_NAME    = CZ-2F DEB
OBJECT_ID      = 2026-024D
CENTER_NAME    = EARTH
REF_FRAME      = TEME
TIME_SYSTEM    = UTC
MEAN_ELEMENT_THEORY = SGP/SGP4

EPOCH          = 2026-02-18T15:02:46.333824
MEAN_MOTION    = 15.17211997
ECCENTRICITY   = .0259029
INCLINATION    = 50.3132
RA_OF_ASC_NODE = 111.8301
ARG_OF_PERICENTER = 205.0507
MEAN_ANOMALY   = 153.7696

EPHEMERIS_TYPE = 0
CLASSIFICATION_TYPE = U
NORAD_CAT_ID   = 67692
ELEMENT_SET_NO = 999
REV_AT_EPOCH   = 172
BSTAR          = .42487E-2
MEAN_MOTION_DOT = .213881E-2
MEAN_MOTION_DDOT = 0

CCSDS_OMM_VERS = 2.0
CREATION_DATE  = 
ORIGINATOR     = 

OBJECT_NAME    = STARLINK-36748
OBJECT_ID      = 2026-025A
CENTER_NAME    = EARTH
REF_FRAME      = TEME
TIME_SYSTEM    = UTC
MEAN_ELEMENT_THEORY = SGP/SGP4

EPOCH          = 2026-02-18T20:00:01.999008
MEAN_MOTION    = 15.91170573
ECCENTRICITY   = .0001454
INCLINATION    = 97.2785
RA_OF_ASC_NODE = 160.3733
ARG_OF_PERICENTER = 71.0788
MEAN_ANOMALY   = 322.0064

EPHEMERIS_TYPE = 0
CLASSIFICATION_TYPE = U
NORAD_CAT_ID   = 67693
ELEMENT_SET_NO = 999
REV_AT_EPOCH   = 281
BSTAR          = -.57765E-2
MEAN_MOTION_DOT = -.1807197E-1
MEAN_MOTION_DDOT = .89412E-3

CCSDS_OMM_VERS = 2.0
CREATION_DATE  = 
ORIGINATOR     = 

OBJECT_NAME    = STARLINK-36753
OBJECT_ID      = 2026-025B
CENTER_NAME    = EARTH
REF_FRAME      = TEME
TIME_SYSTEM    = UTC
MEAN_ELEMENT_THEORY = SGP/SGP4

EPOCH          = 2026-02-18T20:00:01.999008
MEAN_MOTION    = 15.92001460
ECCENTRICITY   = .0001489
INCLINATION    = 97.2773
RA_OF_ASC_NODE = 160.3816
ARG_OF_PERICENTER = 65.9646
MEAN_ANOMALY   = 346.8830

EPHEMERIS_TYPE = 0
CLASSIFICATION_TYPE = U
NORAD_CAT_ID   = 67694
ELEMENT_SET_NO = 999
REV_AT_EPOCH   = 297
BSTAR          = -.54241E-2
MEAN_MOTION_DOT = -.1770958E-1
MEAN_MOTION_DDOT = .86824E-3

CCSDS_OMM_VERS = 2.0
CREATION_DATE  = 
ORIGINATOR     = 

OBJECT_NAME    = STARLINK-36750
OBJECT_ID      = 2026-025C
CENTER_NAME    = EARTH
REF_FRAME      = TEME
TIME_SYSTEM    = UTC
MEAN_ELEMENT_THEORY = SGP/SGP4

EPOCH          = 2026-02-18T20:00:01.999008
MEAN_MOTION    = 15.91478096
ECCENTRICITY   = .0001356
INCLINATION    = 97.2782
RA_OF_ASC_NODE = 160.3760
ARG_OF_PERICENTER = 79.9226
MEAN_ANOMALY   = 320.3919

EPHEMERIS_TYPE = 0
CLASSIFICATION_TYPE = U
NORAD_CAT_ID   = 67695
ELEMENT_SET_NO = 999
REV_AT_EPOCH   = 281
BSTAR          = -.56633E-2
MEAN_MOTION_DOT = -.1799807E-1
MEAN_MOTION_DDOT = .89006E-3

CCSDS_OMM_VERS = 2.0
CREATION_DATE  = 
ORIGINATOR     = 

OBJECT_NAME    = STARLINK-36401
OBJECT_ID      = 2026-025D
CENTER_NAME    = EARTH
REF_FRAME      = TEME
TIME_SYSTEM    = UTC
MEAN_ELEMENT_THEORY = SGP/SGP4

EPOCH          = 2026-02-18T20:00:01.999008
MEAN_MOTION    = 15.91732239
ECCENTRICITY   = .0001333
INCLINATION    = 97.2778
RA_OF_ASC_NODE = 160.3786
ARG_OF_PERICENTER = 81.5652
MEAN_ANOMALY   = 324.6422

EPHEMERIS_TYPE = 0
CLASSIFICATION_TYPE = U
NORAD_CAT_ID   = 67696
ELEMENT_SET_NO = 999
REV_AT_EPOCH   = 281
BSTAR          = -.56236E-2
MEAN_MOTION_DOT = -.1810431E-1
MEAN_MOTION_DDOT = .9022E-3

CCSDS_OMM_VERS = 2.0
CREATION_DATE  = 
ORIGINATOR     = 

OBJECT_NAME    = STARLINK-36704
OBJECT_ID      = 2026-025E
CENTER_NAME    = EARTH
REF_FRAME      = TEME
TIME_SYSTEM    = UTC
MEAN_ELEMENT_THEORY = SGP/SGP4

EPOCH          = 2026-02-18T20:00:01.999008
MEAN_MOTION    = 15.92296896
ECCENTRICITY   = .0001438
INCLINATION    = 97.2769
RA_OF_ASC_NODE = 160.3842
ARG_OF_PERICENTER = 78.0306
MEAN_ANOMALY   = 341.4815

EPHEMERIS_TYPE = 0
CLASSIFICATION_TYPE = U
NORAD_CAT_ID   = 67697
ELEMENT_SET_NO = 999
REV_AT_EPOCH   = 281
BSTAR          = -.53577E-2
MEAN_MOTION_DOT = -.1775962E-1
MEAN_MOTION_DDOT = .87543E-3

CCSDS_OMM_VERS = 2.0
CREATION_DATE  = 
ORIGINATOR     = 

OBJECT_NAME    = STARLINK-36697
OBJECT_ID      = 2026-025F
CENTER_NAME    = EARTH
REF_FRAME      = TEME
TIME_SYSTEM    = UTC
MEAN_ELEMENT_THEORY = SGP/SGP4

EPOCH          = 2026-02-18T20:00:01.999008
MEAN_MOTION    = 15.92500818
ECCENTRICITY   = .0001422
INCLINATION    = 97.2768
RA_OF_ASC_NODE = 160.3865
ARG_OF_PERICENTER = 81.1985
MEAN_ANOMALY   = 343.1687

EPHEMERIS_TYPE = 0
CLASSIFICATION_TYPE = U
NORAD_CAT_ID   = 67698
ELEMENT_SET_NO = 999
REV_AT_EPOCH   = 276
BSTAR          = -.52818E-2
MEAN_MOTION_DOT = -.1769396E-1
MEAN_MOTION_DDOT = .87122E-3

CCSDS_OMM_VERS = 2.0
CREATION_DATE  = 
ORIGINATOR     = 

OBJECT_NAME    = STARLINK-36716
OBJECT_ID      = 2026-025G
CENTER_NAME    = EARTH
REF_FRAME      = TEME
TIME_SYSTEM    = UTC
MEAN_ELEMENT_THEORY = SGP/SGP4

EPOCH          = 2026-02-18T20:00:01.999008
MEAN_MOTION    = 15.92774836
ECCENTRICITY   = .0001452
INCLINATION    = 97.2763
RA_OF_ASC_NODE = 160.3889
ARG_OF_PERICENTER = 81.1449
MEAN_ANOMALY   = 349.4801

EPHEMERIS_TYPE = 0
CLASSIFICATION_TYPE = U
NORAD_CAT_ID   = 67699
ELEMENT_SET_NO = 999
REV_AT_EPOCH   = 297
BSTAR          = -.52122E-2
MEAN_MOTION_DOT = -.1770978E-1
MEAN_MOTION_DDOT = .87512E-3

CCSDS_OMM_VERS = 2.0
CREATION_DATE  = 
ORIGINATOR     = 

OBJECT_NAME    = STARLINK-36712
OBJECT_ID      = 2026-025H
CENTER_NAME    = EARTH
REF_FRAME      = TEME
TIME_SYSTEM    = UTC
MEAN_ELEMENT_THEORY = SGP/SGP4

EPOCH          = 2026-02-18T20:00:01.999008
MEAN_MOTION    = 15.93036097
ECCENTRICITY   = .0001493
INCLINATION    = 97.2761
RA_OF_ASC_NODE = 160.3918
ARG_OF_PERICENTER = 80.7350
MEAN_ANOMALY   = 355.9636

EPHEMERIS_TYPE = 0
CLASSIFICATION_TYPE = U
NORAD_CAT_ID   = 67700
ELEMENT_SET_NO = 999
REV_AT_EPOCH   = 276
BSTAR          = -.51316E-2
MEAN_MOTION_DOT = -.1767433E-1
MEAN_MOTION_DDOT = .8742E-3

CCSDS_OMM_VERS = 2.0
CREATION_DATE  = 
ORIGINATOR     = 

OBJECT_NAME    = STARLINK-36713
OBJECT_ID      = 2026-025J
CENTER_NAME    = EARTH
REF_FRAME      = TEME
TIME_SYSTEM    = UTC
MEAN_ELEMENT_THEORY = SGP/SGP4

EPOCH          = 2026-02-18T20:00:01.999008
MEAN_MOTION    = 15.93298028
ECCENTRICITY   = .0001513
INCLINATION    = 97.2757
RA_OF_ASC_NODE = 160.3931
ARG_OF_PERICENTER = 71.8434
MEAN_ANOMALY   = 10.8891

EPHEMERIS_TYPE = 0
CLASSIFICATION_TYPE = U
NORAD_CAT_ID   = 67701
ELEMENT_SET_NO = 999
REV_AT_EPOCH   = 297
BSTAR          = -.50429E-2
MEAN_MOTION_DOT = -.1760789E-1
MEAN_MOTION_DDOT = .87043E-3

CCSDS_OMM_VERS = 2.0
CREATION_DATE  = 
ORIGINATOR     = 

OBJECT_NAME    = STARLINK-36695
OBJECT_ID      = 2026-025K
CENTER_NAME    = EARTH
REF_FRAME      = TEME
TIME_SYSTEM    = UTC
MEAN_ELEMENT_THEORY = SGP/SGP4

EPOCH          = 2026-02-18T20:00:01.999008
MEAN_MOTION    = 15.93506904
ECCENTRICITY   = .0001577
INCLINATION    = 97.2753
RA_OF_ASC_NODE = 160.3960
ARG_OF_PERICENTER = 71.9897
MEAN_ANOMALY   = 15.7722

EPHEMERIS_TYPE = 0
CLASSIFICATION_TYPE = U
NORAD_CAT_ID   = 67702
ELEMENT_SET_NO = 999
REV_AT_EPOCH   = 281
BSTAR          = -.49468E-2
MEAN_MOTION_DOT = -.1746337E-1
MEAN_MOTION_DDOT = .85901E-3

CCSDS_OMM_VERS = 2.0
CREATION_DATE  = 
ORIGINATOR     = 

OBJECT_NAME    = STARLINK-36630
OBJECT_ID      = 2026-025L
CENTER_NAME    = EARTH
REF_FRAME      = TEME
TIME_SYSTEM    = UTC
MEAN_ELEMENT_THEORY = SGP/SGP4

EPOCH          = 2026-02-18T20:00:01.999008
MEAN_MOTION    = 15.93713346
ECCENTRICITY   = .0001572
INCLINATION    = 97.2752
RA_OF_ASC_NODE = 160.3983
ARG_OF_PERICENTER = 72.0604
MEAN_ANOMALY   = 20.5689

EPHEMERIS_TYPE = 0
CLASSIFICATION_TYPE = U
NORAD_CAT_ID   = 67703
ELEMENT_SET_NO = 999
REV_AT_EPOCH   = 281
BSTAR          = -.48714E-2
MEAN_MOTION_DOT = -.1738449E-1
MEAN_MOTION_DDOT = .85361E-3

